YUNHAI 3                
1 54235U 22151A   22316.99202262  .00000206  00000+0  13311-3 0  9995
2 54235  98.8201 322.0410 0011464 261.5179  98.4694 14.13311045   146
TIANZHOU-5              
1 54237U 22152A   22317.49160325  .00021754  00000+0  26486-3 0  9995
2 54237  41.4776  29.3671 0009832 281.3692 200.4947 15.59948779 88111
2022-153A               
1 54243U 22153A   22316.84824063 -.00000317  00000+0  00000+0 0  9990
2 54243  24.1969 127.5643 8136036 179.9751  73.2957  1.28512785    07
2022-153B               
1 54244U 22153B   22316.83817582 -.00000010  00000+0  00000+0 0  9998
2 54244  22.2571 129.9478 8130757 177.8005  68.5970  1.28377396    00
